STARLINK-36814          
1 67904U 26036A   26081.61454414  .00092713  00000+0  15665-2 0  9995
2 67904  43.0003 173.6060 0001813 246.0294 114.0377 15.50597032  5680
STARLINK-36729          
1 67905U 26036B   26082.50003471 -.01936589  00000+0 -49843-1 0  9993
2 67905  42.9991 167.8624 0001517 296.8911 201.4968 15.41877098  5866
STARLINK-36763          
1 67906U 26036C   26082.50003471 -.01936116  00000+0 -52375-1 0  9994
2 67906  42.9988 167.8182 0001360 290.1460 225.9796 15.40395452  5862
STARLINK-36742          
1 67907U 26036D   26082.50003471 -.01931323  00000+0 -46945-1 0  9996
2 67907  42.9994 167.8115 0001358 297.1532 221.8372 15.43552743  5866
STARLINK-36827          
1 67908U 26036E   26082.50003471 -.01860543  00000+0 -53893-1 0  9992
2 67908  42.9991 167.6086 0001012 293.6105 307.6123 15.38198848  5866
STARLINK-36822          
1 67909U 26036F   26080.65997157  .00089964  00000+0  15160-2 0  9993
2 67909  42.9968 178.4570 0000179  89.2305 270.8576 15.50685632  5547
STARLINK-36847          
1 67910U 26036G   26081.56519972  .00085529  00000+0  14483-2 0  9991
2 67910  43.0008 173.2112 0000925 249.3874 110.6887 15.50570646  5689
STARLINK-36736          
1 67911U 26036H   26082.50003471 -.02187860  00000+0 -68440-1 0  9995
2 67911  42.9986 167.4153 0001781 277.2030  40.7736 15.35836892  5865
STARLINK-36676          
1 67912U 26036J   26082.50003471 -.01902167  00000+0 -51950-1 0  9998
2 67912  42.9991 167.4326 0001053 266.3676  46.3699 15.40050566  5863
STARLINK-36690          
1 67913U 26036K   26082.50003471 -.01917999  00000+0 -50735-1 0  9998
2 67913  42.9996 167.3962 0001513 264.4594  62.0915 15.41030271  5861
STARLINK-36724          
1 67914U 26036L   26082.50003471 -.01925019  00000+0 -47531-1 0  9991
2 67914  42.9992 167.3129 0001661 266.2375  94.3077 15.43079124  5863
STARLINK-36723          
1 67915U 26036M   26082.50003471 -.01805945  00000+0 -50611-1 0  9990
2 67915  42.9994 167.3129 0001065 268.8323  91.7729 15.39099298  5869
STARLINK-36721          
1 67916U 26036N   26082.50003471 -.01804194  00000+0 -52608-1 0  9994
2 67916  42.9992 167.3180 0001263 262.4416  95.5536 15.37891685  5864
STARLINK-36722          
1 67917U 26036P   26082.50003471 -.01862883  00000+0 -52981-1 0  9998
2 67917  42.9992 167.0776 0001570 294.2440 161.0837 15.38753872  5863
STARLINK-36341          
1 67918U 26036Q   26082.50003471 -.01950878  00000+0 -42029-1 0  9993
2 67918  42.9999 168.0986 0001639 283.9813 117.6966 15.47073649  5867
STARLINK-36663          
1 67919U 26036R   26082.50003471 -.01851125  00000+0 -55163-1 0  9992
2 67919  42.9993 167.2937 0001408 260.7913 106.4373 15.37314137  5864
