[{"OBJECT_NAME":"STARLINK-36814","OBJECT_ID":"2026-036A","EPOCH":"2026-03-22T14:44:56.613696","MEAN_MOTION":15.50597032,"ECCENTRICITY":0.00018134,"INCLINATION":43.0003,"RA_OF_ASC_NODE":173.606,"ARG_OF_PERICENTER":246.0294,"MEAN_ANOMALY":114.0377,"EPHEMERIS_TYPE":0,"CLASSIFICATION_TYPE":"U","NORAD_CAT_ID":67904,"ELEMENT_SET_NO":999,"REV_AT_EPOCH":568,"BSTAR":0.0015665001,"MEAN_MOTION_DOT":0.00092713,"MEAN_MOTION_DDOT":0},{"OBJECT_NAME":"STARLINK-36729","OBJECT_ID":"2026-036B","EPOCH":"2026-03-23T12:00:02.998944","MEAN_MOTION":15.41877098,"ECCENTRICITY":0.0001517,"INCLINATION":42.9991,"RA_OF_ASC_NODE":167.8624,"ARG_OF_PERICENTER":296.8911,"MEAN_ANOMALY":201.4968,"EPHEMERIS_TYPE":0,"CLASSIFICATION_TYPE":"U","NORAD_CAT_ID":67905,"ELEMENT_SET_NO":999,"REV_AT_EPOCH":586,"BSTAR":-0.049843,"MEAN_MOTION_DOT":-0.01936589,"MEAN_MOTION_DDOT":0},{"OBJECT_NAME":"STARLINK-36763","OBJECT_ID":"2026-036C","EPOCH":"2026-03-23T12:00:02.998944","MEAN_MOTION":15.40395452,"ECCENTRICITY":0.000136,"INCLINATION":42.9988,"RA_OF_ASC_NODE":167.8182,"ARG_OF_PERICENTER":290.146,"MEAN_ANOMALY":225.9796,"EPHEMERIS_TYPE":0,"CLASSIFICATION_TYPE":"U","NORAD_CAT_ID":67906,"ELEMENT_SET_NO":999,"REV_AT_EPOCH":586,"BSTAR":-0.052375,"MEAN_MOTION_DOT":-0.01936116,"MEAN_MOTION_DDOT":0},{"OBJECT_NAME":"STARLINK-36742","OBJECT_ID":"2026-036D","EPOCH":"2026-03-23T12:00:02.998944","MEAN_MOTION":15.43552743,"ECCENTRICITY":0.0001358,"INCLINATION":42.9994,"RA_OF_ASC_NODE":167.8115,"ARG_OF_PERICENTER":297.1532,"MEAN_ANOMALY":221.8372,"EPHEMERIS_TYPE":0,"CLASSIFICATION_TYPE":"U","NORAD_CAT_ID":67907,"ELEMENT_SET_NO":999,"REV_AT_EPOCH":586,"BSTAR":-0.046945,"MEAN_MOTION_DOT":-0.01931323,"MEAN_MOTION_DDOT":0},{"OBJECT_NAME":"STARLINK-36827","OBJECT_ID":"2026-036E","EPOCH":"2026-03-23T12:00:02.998944","MEAN_MOTION":15.38198848,"ECCENTRICITY":0.0001012,"INCLINATION":42.9991,"RA_OF_ASC_NODE":167.6086,"ARG_OF_PERICENTER":293.6105,"MEAN_ANOMALY":307.6123,"EPHEMERIS_TYPE":0,"CLASSIFICATION_TYPE":"U","NORAD_CAT_ID":67908,"ELEMENT_SET_NO":999,"REV_AT_EPOCH":586,"BSTAR":-0.053893,"MEAN_MOTION_DOT":-0.01860543,"MEAN_MOTION_DDOT":0},{"OBJECT_NAME":"STARLINK-36822","OBJECT_ID":"2026-036F","EPOCH":"2026-03-21T15:50:21.543648","MEAN_MOTION":15.50685632,"ECCENTRICITY":1.791e-5,"INCLINATION":42.9968,"RA_OF_ASC_NODE":178.457,"ARG_OF_PERICENTER":89.2305,"MEAN_ANOMALY":270.8576,"EPHEMERIS_TYPE":0,"CLASSIFICATION_TYPE":"U","NORAD_CAT_ID":67909,"ELEMENT_SET_NO":999,"REV_AT_EPOCH":554,"BSTAR":0.0015159786,"MEAN_MOTION_DOT":0.00089964,"MEAN_MOTION_DDOT":0},{"OBJECT_NAME":"STARLINK-36847","OBJECT_ID":"2026-036G","EPOCH":"2026-03-22T13:33:53.255808","MEAN_MOTION":15.50570646,"ECCENTRICITY":9.254e-5,"INCLINATION":43.0008,"RA_OF_ASC_NODE":173.2112,"ARG_OF_PERICENTER":249.3874,"MEAN_ANOMALY":110.6887,"EPHEMERIS_TYPE":0,"CLASSIFICATION_TYPE":"U","NORAD_CAT_ID":67910,"ELEMENT_SET_NO":999,"REV_AT_EPOCH":568,"BSTAR":0.001448275,"MEAN_MOTION_DOT":0.00085529,"MEAN_MOTION_DDOT":0},{"OBJECT_NAME":"STARLINK-36736","OBJECT_ID":"2026-036H","EPOCH":"2026-03-23T12:00:02.998944","MEAN_MOTION":15.35836892,"ECCENTRICITY":0.0001781,"INCLINATION":42.9986,"RA_OF_ASC_NODE":167.4153,"ARG_OF_PERICENTER":277.203,"MEAN_ANOMALY":40.7736,"EPHEMERIS_TYPE":0,"CLASSIFICATION_TYPE":"U","NORAD_CAT_ID":67911,"ELEMENT_SET_NO":999,"REV_AT_EPOCH":586,"BSTAR":-0.06844,"MEAN_MOTION_DOT":-0.0218786,"MEAN_MOTION_DDOT":0},{"OBJECT_NAME":"STARLINK-36676","OBJECT_ID":"2026-036J","EPOCH":"2026-03-23T12:00:02.998944","MEAN_MOTION":15.40050566,"ECCENTRICITY":0.0001053,"INCLINATION":42.9991,"RA_OF_ASC_NODE":167.4326,"ARG_OF_PERICENTER":266.3676,"MEAN_ANOMALY":46.3699,"EPHEMERIS_TYPE":0,"CLASSIFICATION_TYPE":"U","NORAD_CAT_ID":67912,"ELEMENT_SET_NO":999,"REV_AT_EPOCH":586,"BSTAR":-0.05195,"MEAN_MOTION_DOT":-0.01902167,"MEAN_MOTION_DDOT":0},{"OBJECT_NAME":"STARLINK-36690","OBJECT_ID":"2026-036K","EPOCH":"2026-03-23T12:00:02.998944","MEAN_MOTION":15.41030271,"ECCENTRICITY":0.0001513,"INCLINATION":42.9996,"RA_OF_ASC_NODE":167.3962,"ARG_OF_PERICENTER":264.4594,"MEAN_ANOMALY":62.0915,"EPHEMERIS_TYPE":0,"CLASSIFICATION_TYPE":"U","NORAD_CAT_ID":67913,"ELEMENT_SET_NO":999,"REV_AT_EPOCH":586,"BSTAR":-0.050735,"MEAN_MOTION_DOT":-0.01917999,"MEAN_MOTION_DDOT":0},{"OBJECT_NAME":"STARLINK-36724","OBJECT_ID":"2026-036L","EPOCH":"2026-03-23T12:00:02.998944","MEAN_MOTION":15.43079124,"ECCENTRICITY":0.0001661,"INCLINATION":42.9992,"RA_OF_ASC_NODE":167.3129,"ARG_OF_PERICENTER":266.2375,"MEAN_ANOMALY":94.3077,"EPHEMERIS_TYPE":0,"CLASSIFICATION_TYPE":"U","NORAD_CAT_ID":67914,"ELEMENT_SET_NO":999,"REV_AT_EPOCH":586,"BSTAR":-0.047531,"MEAN_MOTION_DOT":-0.01925019,"MEAN_MOTION_DDOT":0},{"OBJECT_NAME":"STARLINK-36723","OBJECT_ID":"2026-036M","EPOCH":"2026-03-23T12:00:02.998944","MEAN_MOTION":15.39099298,"ECCENTRICITY":0.0001065,"INCLINATION":42.9994,"RA_OF_ASC_NODE":167.3129,"ARG_OF_PERICENTER":268.8323,"MEAN_ANOMALY":91.7729,"EPHEMERIS_TYPE":0,"CLASSIFICATION_TYPE":"U","NORAD_CAT_ID":67915,"ELEMENT_SET_NO":999,"REV_AT_EPOCH":586,"BSTAR":-0.050611,"MEAN_MOTION_DOT":-0.01805945,"MEAN_MOTION_DDOT":0},{"OBJECT_NAME":"STARLINK-36721","OBJECT_ID":"2026-036N","EPOCH":"2026-03-23T12:00:02.998944","MEAN_MOTION":15.37891685,"ECCENTRICITY":0.0001263,"INCLINATION":42.9992,"RA_OF_ASC_NODE":167.318,"ARG_OF_PERICENTER":262.4416,"MEAN_ANOMALY":95.5536,"EPHEMERIS_TYPE":0,"CLASSIFICATION_TYPE":"U","NORAD_CAT_ID":67916,"ELEMENT_SET_NO":999,"REV_AT_EPOCH":586,"BSTAR":-0.052608,"MEAN_MOTION_DOT":-0.01804194,"MEAN_MOTION_DDOT":0},{"OBJECT_NAME":"STARLINK-36722","OBJECT_ID":"2026-036P","EPOCH":"2026-03-23T12:00:02.998944","MEAN_MOTION":15.38753872,"ECCENTRICITY":0.000157,"INCLINATION":42.9992,"RA_OF_ASC_NODE":167.0776,"ARG_OF_PERICENTER":294.244,"MEAN_ANOMALY":161.0837,"EPHEMERIS_TYPE":0,"CLASSIFICATION_TYPE":"U","NORAD_CAT_ID":67917,"ELEMENT_SET_NO":999,"REV_AT_EPOCH":586,"BSTAR":-0.052981,"MEAN_MOTION_DOT":-0.01862883,"MEAN_MOTION_DDOT":0},{"OBJECT_NAME":"STARLINK-36341","OBJECT_ID":"2026-036Q","EPOCH":"2026-03-23T12:00:02.998944","MEAN_MOTION":15.47073649,"ECCENTRICITY":0.0001639,"INCLINATION":42.9999,"RA_OF_ASC_NODE":168.0986,"ARG_OF_PERICENTER":283.9813,"MEAN_ANOMALY":117.6966,"EPHEMERIS_TYPE":0,"CLASSIFICATION_TYPE":"U","NORAD_CAT_ID":67918,"ELEMENT_SET_NO":999,"REV_AT_EPOCH":586,"BSTAR":-0.042029,"MEAN_MOTION_DOT":-0.01950878,"MEAN_MOTION_DDOT":0},{"OBJECT_NAME":"STARLINK-36663","OBJECT_ID":"2026-036R","EPOCH":"2026-03-23T12:00:02.998944","MEAN_MOTION":15.37314137,"ECCENTRICITY":0.0001408,"INCLINATION":42.9993,"RA_OF_ASC_NODE":167.2937,"ARG_OF_PERICENTER":260.7913,"MEAN_ANOMALY":106.4373,"EPHEMERIS_TYPE":0,"CLASSIFICATION_TYPE":"U","NORAD_CAT_ID":67919,"ELEMENT_SET_NO":999,"REV_AT_EPOCH":586,"BSTAR":-0.055163,"MEAN_MOTION_DOT":-0.01851125,"MEAN_MOTION_DDOT":0}]
